
    {
      "objectName": "ONEWEB-0567",
      "objectId": "2023-004H",
      "noradId": 55147,
      "epochUtc": "2026-02-27T06:26:18.373344",
      "meanMotionRevPerDay": 13.18685542,
      "eccentricity": 0.00021838,
      "inclinationDeg": 87.9232,
      "raanDeg": 357.3049,
      "argPerigeeDeg": 85.8073,
      "meanAnomalyDeg": 274.3308,
      "bstar": -0.000020555216,
      "meanMotionDot": 5e-8,
      "meanMotionDdot": 0,
      "elementSetNo": 999,
      "revAtEpoch": 15521
    },
    {
      "objectName": "ONEWEB-0571",
      "objectId": "2023-004L",
      "noradId": 55150,
      "epochUtc": "2026-02-27T06:02:33.417888",
      "meanMotionRevPerDay": 13.18685277,
      "eccentricity": 0.00031035,
      "inclinationDeg": 87.9249,
      "raanDeg": 357.3033,
      "argPerigeeDeg": 89.6853,
      "meanAnomalyDeg": 270.4635,
      "bstar": 0.000028092031,
      "meanMotionDot": 2.4e-7,
      "meanMotionDdot": 0,
      "elementSetNo": 999,
      "revAtEpoch": 15521
    },
    {
      "objectName": "ONEWEB-0598",
      "objectId": "2023-004Q",
      "noradId": 55154,
      "epochUtc": "2026-02-27T05:11:54.328992",
      "meanMotionRevPerDay": 13.11415979,
      "eccentricity": 0.00022628,
      "inclinationDeg": 87.8841,
      "raanDeg": 42.9414,
      "argPerigeeDeg": 98.0021,
      "meanAnomalyDeg": 262.1364,
      "bstar": -0.0014271429,
      "meanMotionDot": -0.00000493,
      "meanMotionDdot": 0,
      "elementSetNo": 999,
      "revAtEpoch": 15148
    },
    {
      "objectName": "ONEWEB-0617",
      "objectId": "2023-004U",
      "noradId": 55158,
      "epochUtc": "2026-02-27T04:47:29.593248",
      "meanMotionRevPerDay": 13.11413218,
      "eccentricity": 0.00021066,
      "inclinationDeg": 87.8844,
      "raanDeg": 42.9359,
      "argPerigeeDeg": 78.7653,
      "meanAnomalyDeg": 281.3712,
      "bstar": -0.00090235384,
      "meanMotionDot": -0.00000307,
      "meanMotionDdot": 0,
      "elementSetNo": 999,
      "revAtEpoch": 15144
    },
    {
      "objectName": "ONEWEB-0620",
      "objectId": "2023-004X",
      "noradId": 55161,
      "epochUtc": "2026-02-27T04:40:10.943904",
      "meanMotionRevPerDay": 13.11414177,
      "eccentricity": 0.00021595,
      "inclinationDeg": 87.8839,
      "raanDeg": 42.9535,
      "argPerigeeDeg": 86.6184,
      "meanAnomalyDeg": 273.5191,
      "bstar": -0.000019044531,
      "meanMotionDot": 6e-8,
      "meanMotionDdot": 0,
      "elementSetNo": 999,
      "revAtEpoch": 15141
    },
    {
      "objectName": "ONEWEB-0624",
      "objectId": "2023-004AB",
      "noradId": 55165,
      "epochUtc": "2026-02-27T05:24:09.515232",
      "meanMotionRevPerDay": 13.12923414,
      "eccentricity": 0.00019044,
      "inclinationDeg": 87.8985,
      "raanDeg": 12.429,
      "argPerigeeDeg": 75.1678,
      "meanAnomalyDeg": 284.9662,
      "bstar": 0.00020004227,
      "meanMotionDot": 8.5e-7,
      "meanMotionDdot": 0,
      "elementSetNo": 999,
      "revAtEpoch": 15364
    },
    {
      "objectName": "ONEWEB-0628",
      "objectId": "2023-004AF",
      "noradId": 55169,
      "epochUtc": "2026-02-27T05:48:56.797056",
      "meanMotionRevPerDay": 13.12441333,
      "eccentricity": 0.00018398,
      "inclinationDeg": 87.8992,
      "raanDeg": 12.4723,
      "argPerigeeDeg": 58.2177,
      "meanAnomalyDeg": 301.913,
      "bstar": 0.0013403658,
      "meanMotionDot": 0.00000495,
      "meanMotionDdot": 0,
      "elementSetNo": 999,
      "revAtEpoch": 15361
    },
    {
      "objectName": "ONEWEB-0709",
      "objectId": "2023-004AJ",
      "noradId": 55172,
      "epochUtc": "2026-02-27T04:25:32.653344",
      "meanMotionRevPerDay": 13.11414417,
      "eccentricity": 0.00025515,
      "inclinationDeg": 87.8839,
      "raanDeg": 42.9592,
      "argPerigeeDeg": 99.6946,
      "meanAnomalyDeg": 260.447,
      "bstar": 0.0011460859,
      "meanMotionDot": 0.00000419,
      "meanMotionDdot": 0,
      "elementSetNo": 999,
      "revAtEpoch": 15145
    },
    {
      "objectName": "ONEWEB-0715",
      "objectId": "2023-004AN",
      "noradId": 55176,
      "epochUtc": "2026-02-27T05:53:26.662272",
      "meanMotionRevPerDay": 13.11416164,
      "eccentricity": 0.00025803,
      "inclinationDeg": 87.8844,
      "raanDeg": 42.9277,
      "argPerigeeDeg": 88.4449,
      "meanAnomalyDeg": 271.6974,
      "bstar": 0.0015843521,
      "meanMotionDot": 0.00000574,
      "meanMotionDdot": 0,
      "elementSetNo": 999,
      "revAtEpoch": 15145
    },
    {
      "objectName": "ONEWEB-0719",
      "objectId": "2023-004AR",
      "noradId": 55179,
      "epochUtc": "2026-02-27T03:48:38.253312",
      "meanMotionRevPerDay": 13.17650389,
      "eccentricity": 0.00016461,
      "inclinationDeg": 87.9137,
      "raanDeg": 27.6788,
      "argPerigeeDeg": 82.5763,
      "meanAnomalyDeg": 277.5556,
      "bstar": -0.00011758647,
      "meanMotionDot": -3.3e-7,
      "meanMotionDdot": 0,
      "elementSetNo": 999,
      "revAtEpoch": 15309
    },
    {
      "objectName": "ONEWEB-0562",
      "objectId": "2023-029D",
      "noradId": 55799,
      "epochUtc": "2026-02-27T03:33:42.420960",
      "meanMotionRevPerDay": 13.20772035,
      "eccentricity": 0.0001355,
      "inclinationDeg": 87.9172,
      "raanDeg": 296.4306,
      "argPerigeeDeg": 47.6389,
      "meanAnomalyDeg": 312.4858,
      "bstar": 0.00020771577,
      "meanMotionDot": 9.7e-7,
      "meanMotionDdot": 0,
      "elementSetNo": 999,
      "revAtEpoch": 14662
    },
    {
      "objectName": "ONEWEB-0639",
      "objectId": "2023-029H",
      "noradId": 55803,
      "epochUtc": "2026-02-27T05:58:50.291616",
      "meanMotionRevPerDay": 13.19726008,
      "eccentricity": 0.00019309,
      "inclinationDeg": 87.9246,
      "raanDeg": 326.8745,
      "argPerigeeDeg": 113.4832,
      "meanAnomalyDeg": 246.6504,
      "bstar": 0.000007727929,
      "meanMotionDot": 1.6e-7,
      "meanMotionDdot": 0,
      "elementSetNo": 999,
      "revAtEpoch": 14440
    },
    {
      "objectName": "ONEWEB-0642",
      "objectId": "2023-029L",
      "noradId": 55806,
      "epochUtc": "2026-02-27T05:45:11.795040",
      "meanMotionRevPerDay": 13.19725508,
      "eccentricity": 0.00021815,
      "inclinationDeg": 87.9243,
      "raanDeg": 326.8784,
      "argPerigeeDeg": 98.7322,
      "meanAnomalyDeg": 261.4058,
      "bstar": 0.00020052819,
      "meanMotionDot": 9.3e-7,
      "meanMotionDdot": 0,
      "elementSetNo": 999,
      "revAtEpoch": 14440
    },
    {
      "objectName": "ONEWEB-0646",
      "objectId": "2023-029Q",
      "noradId": 55810,
      "epochUtc": "2026-02-27T04:46:02.882208",
      "meanMotionRevPerDay": 13.19726698,
      "eccentricity": 0.0001873,
      "inclinationDeg": 87.9241,
      "raanDeg": 326.8859,
      "argPerigeeDeg": 88.1221,
      "meanAnomalyDeg": 272.0127,
      "bstar": -0.000049692366,
      "meanMotionDot": -7e-8,
      "meanMotionDdot": 0,
      "elementSetNo": 999,
      "revAtEpoch": 14438
    }