ONEWEB-0567             
1 55147U 23004H   26058.26826821  .00000005  00000+0 -20555-4 0  9993
2 55147  87.9232 357.3049 0002183  85.8073 274.3308 13.18685542155215
ONEWEB-0571             
1 55150U 23004L   26058.25177567  .00000024  00000+0  28092-4 0  9996
2 55150  87.9249 357.3033 0003103  89.6853 270.4635 13.18685277155216
ONEWEB-0598             
1 55154U 23004Q   26058.21660103 -.00000493  00000+0 -14271-2 0  9993
2 55154  87.8841  42.9414 0002262  98.0021 262.1364 13.11415979151488
ONEWEB-0617             
1 55158U 23004U   26058.19964807 -.00000307  00000+0 -90235-3 0  9991
2 55158  87.8844  42.9359 0002106  78.7653 281.3712 13.11413218151446
ONEWEB-0620             
1 55161U 23004X   26058.19457111  .00000006  00000+0 -19045-4 0  9996
2 55161  87.8839  42.9535 0002159  86.6184 273.5191 13.11414177151411
ONEWEB-0624             
1 55165U 23004AB  26058.22511013  .00000085  00000+0  20004-3 0  9998
2 55165  87.8985  12.4290 0001904  75.1678 284.9662 13.12923414153641
ONEWEB-0628             
1 55169U 23004AF  26058.24232404  .00000495  00000+0  13404-2 0  9998
2 55169  87.8992  12.4723 0001839  58.2177 301.9130 13.12441333153619
ONEWEB-0709             
1 55172U 23004AJ  26058.18440571  .00000419  00000+0  11461-2 0  9998
2 55172  87.8839  42.9592 0002551  99.6946 260.4470 13.11414417151458
ONEWEB-0715             
1 55176U 23004AN  26058.24544748  .00000574  00000+0  15844-2 0  9991
2 55176  87.8844  42.9277 0002580  88.4449 271.6974 13.11416164151458
ONEWEB-0719             
1 55179U 23004AR  26058.15877608 -.00000033  00000+0 -11759-3 0  9992
2 55179  87.9137  27.6788 0001646  82.5763 277.5556 13.17650389153098
ONEWEB-0562             
1 55799U 23029D   26058.14840765  .00000097  00000+0  20772-3 0  9993
2 55799  87.9172 296.4306 0001355  47.6389 312.4858 13.20772035146622
ONEWEB-0639             
1 55803U 23029H   26058.24919319  .00000016  00000+0  77279-5 0  9999
2 55803  87.9246 326.8745 0001930 113.4832 246.6504 13.19726008144406
ONEWEB-0642             
1 55806U 23029L   26058.23971985  .00000093  00000+0  20053-3 0  9999
2 55806  87.9243 326.8784 0002181  98.7322 261.4058 13.19725508144400
ONEWEB-0646             
1 55810U 23029Q   26058.19864447 -.00000007  00000+0 -49692-4 0  9991
2 55810  87.9241 326.8859 0001873  88.1221 272.0127 13.19726698144387
